NORAD_CAT_ID,OBJECT_NAME,OBJECT_TYPE,EPOCH,MEAN_MOTION,ECCENTRICITY,INCLINATION,RA_OF_ASC_NODE,ARG_OF_PERICENTER,MEAN_ANOMALY,BSTAR,MEAN_MOTION_DOT,MEAN_MOTION_DDOT,TLE_LINE0,TLE_LINE1,TLE_LINE2,SEMIMAJOR_AXIS,PERIOD,APOGEE,PERIGEE,DECAYED
52562.0,STARLINK-3957,PAYLOAD,2023-02-16 20:00:12,15.0884524,0.000147,53.2168,92.8892,80.2085,279.9073,0.00041865,6.382e-05,0.0,0 STARLINK-3957,1 52562U 22051AF  23047.83347878  .00006382  00000-0  41865-3 0  9990,2 52562  53.2168  92.8892 0001470  80.2085 279.9073 15.08845240 42976,6917.864,95.437,540.746,538.712,0.0
52562.0,STARLINK-3957,PAYLOAD,2023-02-17 11:54:04,15.08829751,0.0001327,53.216,89.915,83.0477,277.0666,0.00020174,2.923e-05,0.0,0 STARLINK-3957,1 52562U 22051AF  23048.49588705  .00002923  00000-0  20174-3 0  9996,2 52562  53.2160  89.9150 0001327  83.0477 277.0666 15.08829751 43145,6917.912,95.438,540.695,538.859,0.0
52562.0,STARLINK-3957,PAYLOAD,2023-02-17 19:51:00,15.08829477,0.000129,53.2158,88.4289,81.0735,279.0403,0.00085636,0.00013363,0.0,0 STARLINK-3957,1 52562U 22051AF  23048.82709158  .00013363  00000-0  85636-3 0  9994,2 52562  53.2158  88.4289 0001290  81.0735 279.0403 15.08829477 43127,6917.913,95.438,540.67,538.885,0.0
52562.0,STARLINK-3957,PAYLOAD,2023-02-18 11:44:52,15.08824877,0.0001142,53.215,85.454,90.5474,269.5649,0.0010674,0.00016733,0.0,0 STARLINK-3957,1 52562U 22051AF  23049.48950101  .00016733  00000-0  10674-2 0  9996,2 52562  53.2150  85.4540 0001142  90.5474 269.5649 15.08824877 43290,6917.927,95.439,540.582,539.002,0.0
52562.0,STARLINK-3957,PAYLOAD,2023-02-18 19:41:48,15.08843807,0.0001138,53.2156,83.9672,91.1716,268.9407,0.001397,0.00022017,0.0,0 STARLINK-3957,1 52562U 22051AF  23049.82070102  .00022017  00000-0  13970-2 0  9992,2 52562  53.2156  83.9672 0001138  91.1716 268.9407 15.08843807 43341,6917.869,95.437,540.521,538.946,0.0
52562.0,STARLINK-3957,PAYLOAD,2023-02-19 11:35:38,15.0887947,0.000118,53.2155,80.9935,88.4065,271.7062,0.0015138,0.00023912,0.0,0 STARLINK-3957,1 52562U 22051AF  23050.48308961  .00023912  00000-0  15138-2 0  9996,2 52562  53.2155  80.9935 0001180  88.4065 271.7062 15.08879470 43379,6917.76,95.435,540.441,538.808,0.0
52562.0,STARLINK-3957,PAYLOAD,2023-02-19 19:32:34,15.08866045,0.0001071,53.2161,79.506,92.1457,267.9658,0.0005395,8.315e-05,0.0,0 STARLINK-3957,1 52562U 22051AF  23050.81428714  .00008315  00000-0  53950-3 0  9997,2 52562  53.2161  79.5060 0001071  92.1457 267.9658 15.08866045 43490,6917.801,95.436,540.407,538.925,0.0
52562.0,STARLINK-3957,PAYLOAD,2023-02-20 08:15:39,15.08860865,0.0001904,53.2165,77.1272,93.863,266.258,0.00096517,0.00015115,0.0,0 STARLINK-3957,1 52562U 22051AF  23051.34420529  .00015115  00000-0  96517-3 0  9994,2 52562  53.2165  77.1272 0001904  93.8630 266.2580 15.08860865 43578,6917.817,95.436,540.999,538.364,0.0
52562.0,STARLINK-3957,PAYLOAD,2023-02-20 11:26:25,15.08861672,0.0001665,53.2168,76.5316,95.4593,264.6589,0.00028609,4.271e-05,0.0,0 STARLINK-3957,1 52562U 22051AF  23051.47668237  .00004271  00000-0  28609-3 0  9996,2 52562  53.2168  76.5316 0001665  95.4593 264.6589 15.08861672 43526,6917.814,95.436,540.831,538.527,0.0
52562.0,STARLINK-3957,PAYLOAD,2023-02-21 06:31:03,15.08840718,0.0001662,53.2157,72.9606,96.9685,263.1496,3.7614e-06,-2.28e-06,0.0,0 STARLINK-3957,1 52562U 22051AF  23052.27156644 -.00000228  00000-0  37614-5 0  9996,2 52562  53.2157  72.9606 0001662  96.9685 263.1496 15.08840718 43711,6917.878,95.438,540.893,538.593,0.0
52562.0,STARLINK-3957,PAYLOAD,2023-02-21 08:06:26,15.0884759,0.0001379,53.2153,72.6653,83.6746,276.4403,-8.0438e-06,-4.16e-06,0.0,0 STARLINK-3957,1 52562U 22051AF  23052.33780499 -.00000416  00000-0 -80438-5 0  9996,2 52562  53.2153  72.6653 0001379  83.6746 276.4403 15.08847590 43655,6917.857,95.437,540.676,538.768,0.0
52562.0,STARLINK-3957,PAYLOAD,2023-02-21 17:38:45,15.08843594,0.0001435,53.2156,70.8822,82.8033,277.3122,2.39e-05,9.2e-07,0.0,0 STARLINK-3957,1 52562U 22051AF  23052.73524658  .00000092  00000-0  23900-4 0  9991,2 52562  53.2156  70.8822 0001435  82.8033 277.3122 15.08843594 43714,6917.869,95.437,540.727,538.742,0.0
52562.0,STARLINK-3957,PAYLOAD,2023-02-22 07:57:13,15.08853313,0.0001749,53.217,68.2041,100.5545,259.5644,0.00028813,4.302e-05,0.0,0 STARLINK-3957,1 52562U 22051AF  23053.33140118  .00004302  00000-0  28813-3 0  9998,2 52562  53.2170  68.2041 0001749 100.5545 259.5644 15.08853313 43876,6917.84,95.437,540.915,538.495,0.0
52562.0,STARLINK-3957,PAYLOAD,2023-02-22 17:29:31,15.08864902,0.000144,53.2168,66.4211,96.3051,263.8105,0.0004948,7.601e-05,0.0,0 STARLINK-3957,1 52562U 22051AF  23053.72883393  .00007601  00000-0  49480-3 0  9998,2 52562  53.2168  66.4211 0001440  96.3051 263.8105 15.08864902 43869,6917.804,95.436,540.665,538.673,0.0
52562.0,STARLINK-3957,PAYLOAD,2023-02-23 06:12:37,15.08828635,0.0001512,53.216,64.0435,95.9806,264.1359,-0.0002862,-4.839e-05,0.0,0 STARLINK-3957,1 52562U 22051AF  23054.25876748 -.00004839  00000-0 -28620-3 0  9998,2 52562  53.2160  64.0435 0001512  95.9806 264.1359 15.08828635 44012,6917.915,95.438,540.826,538.734,0.0
52562.0,STARLINK-3957,PAYLOAD,2023-02-23 10:58:46,15.08832008,0.0001485,53.2161,63.1507,92.4178,267.6984,-0.00016754,-2.953e-05,0.0,0 STARLINK-3957,1 52562U 22051AF  23054.45748728 -.00002953  00000-0 -16754-3 0  9996,2 52562  53.2161  63.1507 0001485  92.4178 267.6984 15.08832008 43971,6917.905,95.438,540.797,538.743,0.0
52562.0,STARLINK-3957,PAYLOAD,2023-02-23 17:20:19,15.08834839,0.0001456,53.2158,61.9617,93.4689,266.647,-4.0311e-05,-9.29e-06,0.0,0 STARLINK-3957,1 52562U 22051AF  23054.72244777 -.00000929  00000-0 -40311-4 0  9999,2 52562  53.2158  61.9617 0001456  93.4689 266.6470 15.08834839 44010,6917.896,95.438,540.768,538.754,0.0
52562.0,STARLINK-3957,PAYLOAD,2023-02-24 01:17:15,15.08840186,0.0001443,53.2172,60.4733,99.1411,260.9744,0.00047593,7.295e-05,0.0,0 STARLINK-3957,1 52562U 22051AF  23055.05364907  .00007295  00000-0  47593-3 0  9993,2 52562  53.2172  60.4733 0001443  99.1411 260.9744 15.08840186 44137,6917.88,95.438,540.743,538.747,0.0
52562.0,STARLINK-3957,PAYLOAD,2023-02-24 09:14:10,15.08856184,0.000151,53.2171,58.986,91.6531,268.4635,0.0011315,0.00017774,0.0,0 STARLINK-3957,1 52562U 22051AF  23055.38484822  .00017774  00000-0  11315-2 0  9993,2 52562  53.2171  58.9860 0001510  91.6531 268.4635 15.08856184 44119,6917.831,95.437,540.741,538.651,0.0
52562.0,STARLINK-3957,PAYLOAD,2023-02-24 17:11:06,15.08843323,0.0001662,53.2169,57.4993,85.9231,274.1951,0.00041072,6.255e-05,0.0,0 STARLINK-3957,1 52562U 22051AF  23055.71605011  .00006255  00000-0  41072-3 0  9991,2 52562  53.2169  57.4993 0001662  85.9231 274.1951 15.08843323 44169,6917.87,95.437,540.885,538.585,0.0
52562.0,STARLINK-3957,PAYLOAD,2023-02-25 01:08:02,15.08835205,0.0002129,53.2174,56.0127,82.0633,278.0601,3.8531e-05,3.25e-06,0.0,0 STARLINK-3957,1 52562U 22051AF  23056.04725443  .00000325  00000-0  38531-4 0  9999,2 52562  53.2174  56.0127 0002129  82.0633 278.0601 15.08835205 44280,6917.895,95.438,541.233,538.287,0.0
52562.0,STARLINK-3957,PAYLOAD,2023-02-25 05:54:12,15.08829239,0.0001816,53.2184,55.1215,82.4932,277.6266,-1.8374e-05,-5.8e-06,0.0,0 STARLINK-3957,1 52562U 22051AF  23056.24597752 -.00000580  00000-0 -18374-4 0  9999,2 52562  53.2184  55.1215 0001816  82.4932 277.6266 15.08829239 44245,6917.913,95.438,541.035,538.522,0.0
52562.0,STARLINK-3957,PAYLOAD,2023-02-25 17:01:54,15.08835836,0.000192,53.2187,53.0403,82.661,277.4601,0.00012715,1.736e-05,0.0,0 STARLINK-3957,1 52562U 22051AF  23056.70965853  .00001736  00000-0  12715-3 0  9995,2 52562  53.2187  53.0403 0001920  82.6610 277.4601 15.08835836 44314,6917.893,95.438,541.086,538.43,0.0
52562.0,STARLINK-3957,PAYLOAD,2023-02-26 05:44:58,15.08856633,0.0001706,53.2186,50.6613,82.6227,277.4959,0.00036109,5.466e-05,0.0,0 STARLINK-3957,1 52562U 22051AF  23057.23956843  .00005466  00000-0  36109-3 0  9990,2 52562  53.2186  50.6613 0001706  82.6227 277.4959 15.08856633 44465,6917.83,95.437,540.875,538.514,0.0
52562.0,STARLINK-3957,PAYLOAD,2023-02-26 08:55:44,15.08856696,0.0001407,53.2168,50.0652,87.1658,272.9495,0.00045385,6.946e-05,0.0,0 STARLINK-3957,1 52562U 22051AF  23057.37204857  .00006946  00000-0  45385-3 0  9996,2 52562  53.2168  50.0652 0001407  87.1658 272.9495 15.08856696 44417,6917.829,95.436,540.668,538.721,0.0
52562.0,STARLINK-3957,PAYLOAD,2023-02-27 05:35:45,15.08860385,0.0001279,53.2168,46.1999,98.097,262.0167,0.00070907,0.00011021,0.0,0 STARLINK-3957,1 52562U 22051AF  23058.23317000  .00011021  00000-0  70907-3 0  9995,2 52562  53.2168  46.1999 0001279  98.0970 262.0167 15.08860385 44610,6917.818,95.436,540.568,538.798,0.0
52562.0,STARLINK-3957,PAYLOAD,2023-02-27 08:46:32,15.0886458,0.0001402,53.2166,45.6046,100.1029,260.0122,0.0011312,0.00017773,0.0,0 STARLINK-3957,1 52562U 22051AF  23058.36564881  .00017773  00000-0  11312-2 0  9994,2 52562  53.2166  45.6046 0001402 100.1029 260.0122 15.08864580 44567,6917.805,95.436,540.64,538.7,0.0
52562.0,STARLINK-3957,PAYLOAD,2023-02-28 10:12:40,15.08913142,0.0001433,53.2173,40.8479,91.0753,269.0403,0.0022424,0.00035652,0.0,0 STARLINK-3957,1 52562U 22051AF  23059.42546560  .00035652  00000-0  22424-2 0  9998,2 52562  53.2173  40.8479 0001433  91.0753 269.0403 15.08913142 44726,6917.657,95.433,540.513,538.531,0.0
52562.0,STARLINK-3957,PAYLOAD,2023-03-01 05:17:20,15.08792978,7.24e-05,53.2177,37.2803,94.4317,265.6758,0.0011927,0.0001872,0.0,0 STARLINK-3957,1 52562U 22051AF  23060.22037908  .00018720  00000-0  11927-2 0  9992,2 52562  53.2177  37.2803 0000724  94.4317 265.6758 15.08792978 44914,6918.024,95.441,540.39,539.388,0.0
52562.0,STARLINK-3957,PAYLOAD,2023-03-01 06:52:44,15.08796283,6.88e-05,53.2176,36.9825,94.9245,265.1825,0.0017124,0.00027037,0.0,0 STARLINK-3957,1 52562U 22051AF  23060.28662073  .00027037  00000-0  17124-2 0  9991,2 52562  53.2176  36.9825 0000688  94.9245 265.1825 15.08796283 44853,6918.014,95.44,540.355,539.403,0.0
